{
    "links": {
        "self": "http://www.neowsapp.com/rest/v1/neo/3170216?api_key=iIulBulltgU6a56xZRHN4H3l9WmuAYTsLGpBGhQ2"
    },
    "id": "3170216",
    "neo_reference_id": "3170216",
    "name": "(2003 YN7)",
    "designation": "2003 YN7",
    "nasa_jpl_url": "http://ssd.jpl.nasa.gov/sbdb.cgi?sstr=3170216",
    "absolute_magnitude_h": 20.6,
    "estimated_diameter": {
        "kilometers": {
            "estimated_diameter_min": 0.2016299194,
            "estimated_diameter_max": 0.4508582062
        },
        "meters": {
            "estimated_diameter_min": 201.6299194428,
            "estimated_diameter_max": 450.8582061718
        },
        "miles": {
            "estimated_diameter_min": 0.1252869847,
            "estimated_diameter_max": 0.2801502144
        },
        "feet": {
            "estimated_diameter_min": 661.5155049046,
            "estimated_diameter_max": 1479.1936371367
        }
    },
    "is_potentially_hazardous_asteroid": false,
    "close_approach_data": [
        {
            "close_approach_date": "2003-11-30",
            "close_approach_date_full": "2003-Nov-30 22:15",
            "epoch_date_close_approach": 1070230500000,
            "relative_velocity": {
                "kilometers_per_second": "15.3630516752",
                "kilometers_per_hour": "55306.9860306221",
                "miles_per_hour": "34365.610292194"
            },
            "miss_distance": {
                "astronomical": "0.196258976",
                "lunar": "76.344741664",
                "kilometers": "29359924.77798112",
                "miles": "18243411.298814656"
            },
            "orbiting_body": "Earth"
        }
    ],
    "orbital_data": {
        "orbit_id": "16",
        "orbit_determination_date": "2017-04-06 09:13:23",
        "first_observation_date": "2003-12-19",
        "last_observation_date": "2004-01-13",
        "data_arc_in_days": 25,
        "observations_used": 74,
        "orbit_uncertainty": "7",
        "minimum_orbit_intersection": ".130476",
        "jupiter_tisserand_invariant": "2.868",
        "epoch_osculation": "2459000.5",
        "eccentricity": ".6971819466660765",
        "semi_major_axis": "2.761371372552221",
        "inclination": "19.71132501091252",
        "ascending_node_longitude": "94.19880326729121",
        "orbital_period": "1676.044920184579",
        "perihelion_distance": ".8361931035682881",
        "perihelion_argument": "281.0592771407167",
        "aphelion_distance": "4.686549641536154",
        "perihelion_time": "2459642.827303711539",
        "mean_anomaly": "222.0336325408937",
        "mean_motion": ".2147913791954657",
        "equinox": "J2000",
        "orbit_class": {
            "orbit_class_type": "APO",
            "orbit_class_description": "Near-Earth asteroid orbits which cross the Earth’s orbit similar to that of 1862 Apollo",
            "orbit_class_range": "a (semi-major axis) > 1.0 AU; q (perihelion) < 1.017 AU"
        }
    },
    "is_sentry_object": false
}